LEMUR-1                 
1 40044U 14033AL  24165.40020712  .00002543  00000+0  34424-3 0  9990
2 40044  97.6992 327.6858 0053502 320.2805  39.4494 14.78843544536746
LEMUR-2-ANUBHAVTHAKUR   
1 41873U 16062E   24165.49124422  .00234431  00000+0  95493-3 0  9993
2 41873  51.6597  82.5977 0003922  92.3662 267.7791 15.84959014421541
LEMUR-2-GREENBERG       
1 42837U 17042N   24165.52032226  .00008258  00000+0  59340-3 0  9994
2 42837  97.3655 354.3967 0016421  50.5655 309.7023 15.04403225377094
LEMUR-2-ANDIS           
1 42838U 17042P   24165.48174362  .00010016  00000+0  72679-3 0  9993
2 42838  97.3625 354.1158 0017452  53.6019 306.6814 15.03967997377088
LEMUR-2-MONSON          
1 42839U 17042Q   24165.49336963  .00007181  00000+0  53498-3 0  9999
2 42839  97.3943 354.0591 0011980  36.4320 323.7719 15.03138141377036
LEMUR-2-FURIAUS         
1 42840U 17042R   24165.58764463  .00008088  00000+0  60015-3 0  9991
2 42840  97.3679 354.2368 0015637  95.7601 264.5409 15.03210087377040
LEMUR-2-PETERG          
1 42841U 17042S   24165.53617681  .00008740  00000+0  64082-3 0  9999
2 42841  97.3945 355.9531 0006931  39.2809 320.8919 15.03718361377115
LEMUR-2-DEMBITZ         
1 42842U 17042T   24165.59025264  .00007823  00000+0  57616-3 0  9992
2 42842  97.3826 355.7813 0013204  59.3616 300.8910 15.03535095377148
LEMUR-2-ZACHARY         
1 42845U 17042W   24165.47200029  .00011565  00000+0  76001-3 0  9993
2 42845  97.3784 356.2233 0009494  91.3065 268.9251 15.07716383377301
LEMUR-2-JIN-LUEN        
1 43182U 18014C   24165.44279824  .00011939  00000+0  68804-3 0  9991
2 43182  97.5879  68.5995 0012806  16.8185 343.3468 15.12477876348186
LEMUR-2-URAMCHANSOL     
1 43183U 18014D   24165.48788116  .00019647  00000+0  10256-2 0  9996
2 43183  97.5887  70.1576 0012487   6.4137 353.7253 15.15895532348281
LEMUR-2-KADI            
1 43184U 18014E   24165.46366980  .00012071  00000+0  67738-3 0  9998
2 43184  97.5690  68.1016 0010426 355.5854   4.5284 15.13454967348203
LEMUR-2-THENICKMOLO     
1 43185U 18014F   24165.29663870  .00015742  00000+0  84450-3 0  9996
2 43185  97.5842  69.0635 0007591   2.8615 357.2659 15.15019337348211
LEMUR-2-CHRISTINAHOLT   
1 43882U 18111G   24165.49531789  .00022385  00000+0  10561-2 0  9995
2 43882  97.6346  78.3109 0006846   1.6763 358.4493 15.19456501299224
LEMUR-2-TINYKEV         
1 43883U 18111H   24165.49210957  .00030463  00000+0  12784-2 0  9992
2 43883  97.6128  78.5032 0006785   6.1404 353.9915 15.23401124299331
LEMUR-2-REMY-COLTON     
1 43884U 18111J   24165.50461462  .00020363  00000+0  95296-3 0  9992
2 43884  97.6287  78.9679 0002888  68.8791 291.2752 15.19773224297297
LEMUR-2-GUSTAVO         
1 43885U 18111K   24165.51631771  .00020471  00000+0  98014-3 0  9997
2 43885  97.6271  78.0356 0011681 353.9575   6.1516 15.18924758299239
LEMUR-2-ZO              
1 43886U 18111L   24165.33427995  .00020533  00000+0  99154-3 0  9994
2 43886  97.6160  77.3176 0011256  13.9097 346.2445 15.18631169299217
LEMUR-2-NATALIEMURRAY   
1 43887U 18111M   24165.47564510  .00019008  00000+0  90124-3 0  9998
2 43887  97.6300  79.0098 0006221 323.3808  36.7001 15.19323746299275
LEMUR-2-SARAHBETTYBOO   
1 43888U 18111N   24165.31896421  .00023033  00000+0  10598-2 0  9990
2 43888  97.6660  82.0548 0011795  42.6864 317.5285 15.20275183299282
LEMUR-2-DAISY-HARPER    
1 43889U 18111P   24165.49818369  .00023947  00000+0  10224-2 0  9995
2 43889  97.6510  82.3181 0009939  44.2881 315.9149 15.22846282299352
LEMUR-2-ALEX-MADDY      
1 44407U 19038X   24165.55532039  .00271309  00000+0  13149-2 0  9991
2 44407  97.6486 170.3103 0009346 102.1810 258.0505 15.81715666274397
LEMUR-2-JPGSQUARED      
1 44855U 19089D   24165.60690220  .00095966  00000+0  19761-2 0  9996
2 44855  36.9639   9.9609 0004000 354.3896   5.6815 15.44710221248386
LEMUR-2-HIMOMANDDAD     
1 44860U 19089J   24163.92542518  .00193282  00000+0  28179-2 0  9994
2 44860  36.9623  14.8550 0008140 329.8204  30.2086 15.54092445248065
LEMUR-2-PAPPY           
1 44861U 19089K   24165.54363279  .00052785  00000+0  13767-2 0  9999
2 44861  36.9579  24.3102 0003712 330.8262  29.2284 15.37820627248162
LEMUR-2-THEODOSIA       
1 44863U 19089M   24165.63245805  .00095439  00000+0  18657-2 0  9991
2 44863  36.9653   7.2548 0003952   6.1206 353.9599 15.46227749248261
LEMUR-2-SLICERS         
1 46500U 20068Q   24165.43872708  .00073138  00000+0  14296-2 0  9993
2 46500  97.7789 135.1134 0002123  38.3836 321.7563 15.47190755204468
LEMUR-2-DAYWZAGOODDAY   
1 46501U 20068R   24165.46093220  .00053133  00000+0  12774-2 0  9993
2 46501  97.7876 134.5676 0003539 356.4782   3.6438 15.41138383204400
LEMUR-2-SUSURRUS        
1 46502U 20068S   24165.50434373  .00066289  00000+0  12998-2 0  9991
2 46502  97.7835 135.2880 0002281  18.3704 341.7627 15.47128668204476
LEMUR-2-NICHOL          
1 46503U 20068T   24165.43593609  .00040961  00000+0  11190-2 0  9994
2 46503  97.7911 132.9970 0005186 354.1922   5.9261 15.37275273204316
LEMUR-2-OZARAK          
1 46908U 20081D   24165.33729808  .00043519  00000+0  11742-2 0  9994
2 46908  36.8949 151.5665 0005087 254.9296 105.0893 15.36819077198308
LEMUR-2-JINDRA          
1 46909U 20081E   24165.26020753  .00085337  00000+0  15457-2 0  9991
2 46909  36.8930 132.1674 0008278 237.0668 122.9292 15.48433249198514
LEMUR-2-WALLACE         
1 46910U 20081F   24165.32990771  .00074854  00000+0  15346-2 0  9995
2 46910  36.8877 138.3201 0006085 256.1761 103.8317 15.44916830198446
LEMUR-2-JEREMIAH        
1 46911U 20081G   24165.37370096  .00029452  00000+0  84109-3 0  9991
2 46911  36.9020 151.1945 0004796 267.7512  92.2691 15.35151004198322
LEMUR-2-CHANTAL         
1 47529U 21006DV  24165.43856710  .00963115  44498-3  20354-2 0  9991
2 47529  97.3190 233.8402 0012823 235.1329 124.8744 15.98743768189614
LEMUR-2-AMANDA-SVANTE   
1 48269U 21034B   24165.14517836  .00011022  00000+0  91091-3 0  9990
2 48269  97.6645 230.6075 0003778 144.4636 215.6839 14.99105899169896
LEMUR-2-SPECIAL-K       
1 48273U 21034F   24165.41833156  .00011006  00000+0  88422-3 0  9997
2 48273  97.6643 231.1470 0002730 182.4312 177.6899 15.00201366169964
LEMUR-2-ANNABANANA      
1 48923U 21059AW  24165.44944312  .00241107  24060-4  70690-3 0  9998
2 48923  97.5694 332.7257 0005130 235.4950 124.5840 15.92720540165971
LEMUR-2-ROHOVITHSA      
1 51036U 22002BE  24165.18098339  .00167087  00000+0  16304-2 0  9994
2 51036  97.3855 240.9941 0001841 201.8770 158.2411 15.65667470134379
LEMUR-2-MIRIWARI        
1 51054U 22002BY  24165.48198587  .00461185  00000+0  17264-2 0  9995
2 51054  97.3741 243.1571 0009521 236.2172 123.8193 15.86735961134557
LEMUR-2-DJIRANG         
1 51058U 22002CC  24165.48439883  .00614191  00000+0  22138-2 0  9999
2 51058  97.3700 242.8761 0009797 243.0817 116.9454 15.87162999134559
LEMUR-2-HANCOM-1        
1 52740U 22057J   24165.62154525  .00187445  00000+0  13192-2 0  9998
2 52740  97.5761 300.4123 0002779 240.5139 119.5847 15.73556299114493
LEMUR-2-PHILARI         
1 55013U 23001E   24165.43024051  .00152203  00000+0  21217-2 0  9994
2 55013  97.4205 232.1694 0007748 182.8441 177.2771 15.56358921 80537
LEMUR-2-DISCLAIMER      
1 55014U 23001F   24165.46191441  .00194665  00000+0  20235-2 0  9993
2 55014  97.4173 233.1447 0008399 195.3814 164.7190 15.63940723 80581
LEMUR-2-STEVEALBERS     
1 55017U 23001J   24165.60661295  .00069849  00000+0  13389-2 0  9998
2 55017  97.4180 231.0697 0007979 159.7812 200.3756 15.47741223 80481
LEMUR-2-MMOLO           
1 55038U 23001AF  24165.44314728  .00052753  00000+0  11700-2 0  9990
2 55038  97.4300 232.2134 0011862 163.8994 196.2633 15.43494775 80503
LEMUR-2-FUENTETAJA-01   
1 55088U 23001CH  24165.16495713  .00181739  00000+0  22753-2 0  9995
2 55088  97.4273 233.1118 0009744 170.6598 189.4841 15.59124241 80534
LEMUR-2-ONREFLECTION    
1 56182U 23054E   24165.45750132  .00057514  00000+0  10918-2 0  9993
2 56182  97.3558  64.0095 0006724 155.8938 204.2628 15.48084338 65653
LEMUR-2-SPACEGUS        
1 56187U 23054K   24165.45141320  .00156292  00000+0  21966-2 0  9999
2 56187  97.3533  64.6928 0009102 139.9766 220.2161 15.56110373 65699
LEMUR-2-EMBRIONOVIS     
1 56970U 23084AQ  24165.57849167  .00006408  00000+0  29903-3 0  9992
2 56970  97.5480 284.5154 0013749  30.1543 330.0480 15.20115883 55575
LEMUR-2-NAZIYAH         
1 56974U 23084AU  24165.38315491  .00041476  00000+0  12287-2 0  9993
2 56974  97.5315 286.6458 0008072 357.9993   2.1216 15.34714081 55730
LEMUR-2-AADAM-ALIYAH    
1 56977U 23084AX  24165.57740482  .00035382  00000+0  10499-2 0  9991
2 56977  97.5339 286.9539 0008198   2.2587 357.8691 15.34696914 55764
LEMUR-2-MANO            
1 57390U 23100E   24165.53663040  .00007915  00000+0  56153-3 0  9999
2 57390  99.4928   8.6883 0012509 305.8132  54.1926 15.05076479 49733
LEMUR-2-DEVERILL-M-T    
1 57391U 23100F   24165.49528812  .00004530  00000+0  32929-3 0  9997
2 57391  99.4729   8.1507 0012291 306.1293  53.8789 15.04493171 49735
LEMUR-2-BASS            
1 58259U 23174D   24165.16250177  .00010825  00000+0  53355-3 0  9992
2 58259  97.4522 239.3568 0010412 256.7226 103.2847 15.18072116 33074
LEMUR-2-DILIGHTFUL      
1 58260U 23174E   24165.45501256  .00016071  00000+0  70849-3 0  9999
2 58260  97.4584 240.3601 0010024 249.1979 110.8184 15.21834485 33150
LEMUR-2-GOOD-VIBES      
1 58263U 23174H   24165.45609887  .00019706  00000+0  86747-3 0  9993
2 58263  97.4518 240.1964 0009441 253.4455 106.5744 15.21846842 33152
LEMUR-2-SANITA-VETRA    
1 58267U 23174M   24165.19008706  .00019997  00000+0  87822-3 0  9998
2 58267  97.4516 239.9034 0009039 248.9077 111.1193 15.21925584 33117
LEMUR-2-MARAPAMASM      
1 58332U 23174CE  24165.48554610  .00023165  00000+0  89271-3 0  9995
2 58332  97.4510 241.1584 0008974 211.4412 148.6291 15.26303171 33227
LEMUR-2-THE-CLEANER     
1 58333U 23174CF  24165.47667663  .00016146  00000+0  68372-3 0  9998
2 58333  97.4521 240.7452 0009771 209.3695 150.6993 15.23207074 33194
LEMUR-2-MANGO2A         
1 58335U 23174CH  24165.58407640  .00037928  00000+0  12078-2 0  9991
2 58335  97.4501 241.9608 0010290 204.5355 155.5399 15.32415377 33289
LEMUR-2-JK0903EM1407    
1 58336U 23174CJ  24165.47729278  .00011761  00000+0  54383-3 0  9997
2 58336  97.4523 240.2878 0008977 210.6394 149.4317 15.20278269 33168
LEMUR-2-MANGO2B         
1 58337U 23174CK  24165.19164410  .00054002  00000+0  17169-2 0  9993
2 58337  97.4551 241.7222 0010870 209.3158 150.7475 15.32374020 33229
LEMUR-2-MJR092620       
1 58340U 23174CN  24165.18811634  .00011165  00000+0  51238-3 0  9992
2 58340  97.4583 240.2337 0010193 210.2813 149.7835 15.20541923 33128
